start=new Date('2022-09-10T00:00:00.000Z').valueOf();
sats=[{"FILE":"3564914","CENTER_NAME":"EARTH","MEAN_ANOMALY":"279.9397","GP_ID":"212128529","ECCENTRICITY":"0.00015410","COUNTRY_CODE":"US","MEAN_MOTION_DDOT":"0.0000000000000","CLASSIFICATION_TYPE":"U","PERIAPSIS":"546.075","EPOCH":"2022-09-09T05:28:17.207616","OBJECT_ID":"2021-027AE","REF_FRAME":"TEME","SITE":"AFETR","EPHEMERIS_TYPE":"0","LAUNCH_DATE":"2021-04-07","INCLINATION":"53.0540","MEAN_MOTION_DOT":"0.00017355","NORAD_CAT_ID":"48120","REV_AT_EPOCH":"7988","SEMIMAJOR_AXIS":"6925.278","TLE_LINE1":"1 48120U 21027AE  22252.22797694  .00017355  00000-0  11804-2 0  9993","PERIOD":"95.591","TLE_LINE2":"2 48120  53.0540 146.3763 0001541  80.1766 279.9397 15.06423137 79883","TIME_SYSTEM":"UTC","ARG_OF_PERICENTER":"80.1766","RCS_SIZE":"LARGE","RA_OF_ASC_NODE":"146.3763","DECAY_DATE":null,"MEAN_ELEMENT_THEORY":"SGP4","MEAN_MOTION":"15.06423137","OBJECT_NAME":"STARLINK-2460","OBJECT_TYPE":"PAYLOAD","BSTAR":"0.00118040000000","ELEMENT_SET_NO":"999","APOAPSIS":"548.210"},{"MEAN_ANOMALY":"270.5919","CENTER_NAME":"EARTH","FILE":"3564914","MEAN_MOTION_DDOT":"0.0000000000000","ECCENTRICITY":"0.00014270","COUNTRY_CODE":"US","GP_ID":"212126789","EPOCH":"2022-09-09T01:36:02.389248","PERIAPSIS":"546.227","CLASSIFICATION_TYPE":"U","LAUNCH_DATE":"2021-04-07","EPHEMERIS_TYPE":"0","INCLINATION":"53.0544","REF_FRAME":"TEME","SITE":"AFETR","OBJECT_ID":"2021-027AF","TLE_LINE1":"1 48121U 21027AF  22252.06669432  .00002863  00000-0  21100-3 0  9993","TLE_LINE2":"2 48121  53.0544 137.0949 0001427  89.5234 270.5919 15.06399433 79986","PERIOD":"95.592","REV_AT_EPOCH":"7998","SEMIMAJOR_AXIS":"6925.350","MEAN_MOTION_DOT":"0.00002863","NORAD_CAT_ID":"48121","MEAN_MOTION":"15.06399433","DECAY_DATE":null,"MEAN_ELEMENT_THEORY":"SGP4","ARG_OF_PERICENTER":"89.5234","RA_OF_ASC_NODE":"137.0949","RCS_SIZE":"LARGE","TIME_SYSTEM":"UTC","ELEMENT_SET_NO":"999","BSTAR":"0.00021100000000","OBJECT_TYPE":"PAYLOAD","OBJECT_NAME":"STARLINK-2462","APOAPSIS":"548.204"},{"OBJECT_ID":"2021-027AG","SITE":"AFETR","REF_FRAME":"TEME","LAUNCH_DATE":"2021-04-07","EPHEMERIS_TYPE":"0","INCLINATION":"53.0536","CLASSIFICATION_TYPE":"U","PERIAPSIS":"546.127","EPOCH":"2022-09-09T20:40:31.932480","GP_ID":"212166815","ECCENTRICITY":"0.00015620","COUNTRY_CODE":"US","MEAN_MOTION_DDOT":"0.0000000000000","CENTER_NAME":"EARTH","FILE":"3565505","MEAN_ANOMALY":"287.6566","APOAPSIS":"548.290","OBJECT_NAME":"STARLINK-2463","OBJECT_TYPE":"PAYLOAD","BSTAR":"0.00014674000000","ELEMENT_SET_NO":"999","TIME_SYSTEM":"UTC","ARG_OF_PERICENTER":"72.4594","RCS_SIZE":"LARGE","RA_OF_ASC_NODE":"128.4940","MEAN_ELEMENT_THEORY":"SGP4","DECAY_DATE":null,"MEAN_MOTION":"15.06401675","MEAN_MOTION_DOT":"0.00001905","NORAD_CAT_ID":"48122","REV_AT_EPOCH":"8018","SEMIMAJOR_AXIS":"6925.343","TLE_LINE1":"1 48122U 21027AG  22252.86148070  .00001905  00000-0  14674-3 0  9996","TLE_LINE2":"2 48122  53.0536 128.4940 0001562  72.4594 287.6566 15.06401675 80186","PERIOD":"95.592"},{"CENTER_NAME":"EARTH","FILE":"3565505","MEAN_ANOMALY":"276.2414","GP_ID":"212165566","MEAN_MOTION_DDOT":"0.0000000000000","ECCENTRICITY":"0.00013980","COUNTRY_CODE":"US","PERIAPSIS":"546.234","CLASSIFICATION_TYPE":"U","EPOCH":"2022-09-09T20:54:27.388512","OBJECT_ID":"2021-027AH","LAUNCH_DATE":"2021-04-07","INCLINATION":"53.0547","EPHEMERIS_TYPE":"0","SITE":"AFETR","REF_FRAME":"TEME","REV_AT_EPOCH":"8025","SEMIMAJOR_AXIS":"6925.338","MEAN_MOTION_DOT":"0.00000729","NORAD_CAT_ID":"48123","TLE_LINE1":"1 48123U 21027AH  22252.87115033  .00000729  00000-0  67841-4 0  9999","TLE_LINE2":"2 48123  53.0547 123.4891 0001398  83.8734 276.2414 15.06403607 80259","PERIOD":"95.592","ARG_OF_PERICENTER":"83.8734","RA_OF_ASC_NODE":"123.4891","RCS_SIZE":"LARGE","TIME_SYSTEM":"UTC","MEAN_MOTION":"15.06403607","MEAN_ELEMENT_THEORY":"SGP4","DECAY_DATE":null,"OBJECT_TYPE":"PAYLOAD","OBJECT_NAME":"STARLINK-2464","BSTAR":"0.00006784100000","ELEMENT_SET_NO":"999","APOAPSIS":"548.171"},{"TLE_LINE2":"2 48124  53.0536 134.3854 0001688  76.8862 283.2315 15.06398401 80077","PERIOD":"95.592","TLE_LINE1":"1 48124U 21027AJ  22252.67119609  .00001933  00000-0  14864-3 0  9995","NORAD_CAT_ID":"48124","MEAN_MOTION_DOT":"0.00001933","REV_AT_EPOCH":"8007","SEMIMAJOR_AXIS":"6925.353","MEAN_ELEMENT_THEORY":"SGP4","DECAY_DATE":null,"MEAN_MOTION":"15.06398401","TIME_SYSTEM":"UTC","RA_OF_ASC_NODE":"134.3854","RCS_SIZE":"LARGE","ARG_OF_PERICENTER":"76.8862","ELEMENT_SET_NO":"999","BSTAR":"0.00014864000000","OBJECT_NAME":"STARLINK-2465","OBJECT_TYPE":"PAYLOAD","APOAPSIS":"548.387","MEAN_ANOMALY":"283.2315","FILE":"3565505","CENTER_NAME":"EARTH","COUNTRY_CODE":"US","ECCENTRICITY":"0.00016880","MEAN_MOTION_DDOT":"0.0000000000000","GP_ID":"212165816","EPOCH":"2022-09-09T16:06:31.342176","CLASSIFICATION_TYPE":"U","PERIAPSIS":"546.049","REF_FRAME":"TEME","SITE":"AFETR","INCLINATION":"53.0536","LAUNCH_DATE":"2021-04-07","EPHEMERIS_TYPE":"0","OBJECT_ID":"2021-027AJ"},{"GP_ID":"212127289","MEAN_MOTION_DDOT":"0.0000000000000","ECCENTRICITY":"0.00012960","COUNTRY_CODE":"US","FILE":"3564914","CENTER_NAME":"EARTH","MEAN_ANOMALY":"270.7975","OBJECT_ID":"2021-027AK","EPHEMERIS_TYPE":"0","LAUNCH_DATE":"2021-04-07","INCLINATION":"53.0542","SITE":"AFETR","REF_FRAME":"TEME","PERIAPSIS":"546.252","CLASSIFICATION_TYPE":"U","EPOCH":"2022-09-09T05:17:41.051328","ARG_OF_PERICENTER":"89.3162","RCS_SIZE":"LARGE","RA_OF_ASC_NODE":"146.6460","TIME_SYSTEM":"UTC","MEAN_MOTION":"15.06420890","DECAY_DATE":null,"MEAN_ELEMENT_THEORY":"SGP4","SEMIMAJOR_AXIS":"6925.285","REV_AT_EPOCH":"7987","MEAN_MOTION_DOT":"0.00008749","NORAD_CAT_ID":"48125","TLE_LINE1":"1 48125U 21027AK  22252.22061402  .00008749  00000-0  60518-3 0  9993","TLE_LINE2":"2 48125  53.0542 146.6460 0001296  89.3162 270.7975 15.06420890 79878","PERIOD":"95.591","APOAPSIS":"548.047","OBJECT_TYPE":"PAYLOAD","OBJECT_NAME":"STARLINK-2466","BSTAR":"0.00060518000000","ELEMENT_SET_NO":"999"},{"TIME_SYSTEM":"UTC","ARG_OF_PERICENTER":"77.3188","RCS_SIZE":"LARGE","RA_OF_ASC_NODE":"123.6310","DECAY_DATE":null,"MEAN_ELEMENT_THEORY":"SGP4","MEAN_MOTION":"15.06413350","MEAN_MOTION_DOT":"0.00003653","NORAD_CAT_ID":"48126","SEMIMAJOR_AXIS":"6925.308","REV_AT_EPOCH":"8025","TLE_LINE1":"1 48126U 21027AL  22252.83798520  .00003653  00000-0  26390-3 0  9998","PERIOD":"95.591","TLE_LINE2":"2 48126  53.0543 123.6310 0001598  77.3188 282.7979 15.06413350 80253","APOAPSIS":"548.279","OBJECT_NAME":"STARLINK-2467","OBJECT_TYPE":"PAYLOAD","BSTAR":"0.00026390000000","ELEMENT_SET_NO":"999","GP_ID":"212167315","ECCENTRICITY":"0.00015980","COUNTRY_CODE":"US","MEAN_MOTION_DDOT":"0.0000000000000","CENTER_NAME":"EARTH","FILE":"3565505","MEAN_ANOMALY":"282.7979","OBJECT_ID":"2021-027AL","SITE":"AFETR","REF_FRAME":"TEME","INCLINATION":"53.0543","LAUNCH_DATE":"2021-04-07","EPHEMERIS_TYPE":"0","CLASSIFICATION_TYPE":"U","PERIAPSIS":"546.066","EPOCH":"2022-09-09T20:06:41.921280"},{"MEAN_MOTION":"15.06411508","MEAN_ELEMENT_THEORY":"SGP4","DECAY_DATE":null,"RCS_SIZE":"LARGE","RA_OF_ASC_NODE":"146.6630","ARG_OF_PERICENTER":"67.5085","TIME_SYSTEM":"UTC","PERIOD":"95.591","TLE_LINE2":"2 48127  53.0543 146.6630 0001448  67.5085 292.6057 15.06411508 79466","TLE_LINE1":"1 48127U 21027AM  22252.16529514  .00006276  00000-0  43974-3 0  9991","REV_AT_EPOCH":"7946","SEMIMAJOR_AXIS":"6925.313","NORAD_CAT_ID":"48127","MEAN_MOTION_DOT":"0.00006276","APOAPSIS":"548.181","BSTAR":"0.00043974000000","ELEMENT_SET_NO":"999","OBJECT_TYPE":"PAYLOAD","OBJECT_NAME":"STARLINK-2468","MEAN_MOTION_DDOT":"0.0000000000000","COUNTRY_CODE":"US","ECCENTRICITY":"0.00014480","GP_ID":"212099362","MEAN_ANOMALY":"292.6057","FILE":"3564630","CENTER_NAME":"EARTH","LAUNCH_DATE":"2021-04-07","INCLINATION":"53.0543","EPHEMERIS_TYPE":"0","REF_FRAME":"TEME","SITE":"AFETR","OBJECT_ID":"2021-027AM","EPOCH":"2022-09-09T03:58:01.500096","PERIAPSIS":"546.176","CLASSIFICATION_TYPE":"U"},{"MEAN_ANOMALY":"271.5116","FILE":"3565505","CENTER_NAME":"EARTH","MEAN_MOTION_DDOT":"0.0000000000000","COUNTRY_CODE":"US","ECCENTRICITY":"0.00013720","GP_ID":"212166316","EPOCH":"2022-09-09T17:50:02.245056","PERIAPSIS":"546.269","CLASSIFICATION_TYPE":"U","EPHEMERIS_TYPE":"0","LAUNCH_DATE":"2021-04-07","INCLINATION":"53.0562","SITE":"AFETR","REF_FRAME":"TEME","OBJECT_ID":"2021-027AN","PERIOD":"95.592","TLE_LINE2":"2 48128  53.0562  74.1509 0001372  88.6030 271.5116 15.06398082 80924","TLE_LINE1":"1 48128U 21027AN  22252.74308154  .00001289  00000-0  10543-3 0  9996","REV_AT_EPOCH":"8092","SEMIMAJOR_AXIS":"6925.354","NORAD_CAT_ID":"48128","MEAN_MOTION_DOT":"0.00001289","MEAN_MOTION":"15.06398082","DECAY_DATE":null,"MEAN_ELEMENT_THEORY":"SGP4","RCS_SIZE":"LARGE","RA_OF_ASC_NODE":"74.1509","ARG_OF_PERICENTER":"88.6030","TIME_SYSTEM":"UTC","BSTAR":"0.00010543000000","ELEMENT_SET_NO":"999","OBJECT_TYPE":"PAYLOAD","OBJECT_NAME":"STARLINK-2469","APOAPSIS":"548.170"},{"MEAN_MOTION_DDOT":"0.0000000000000","ECCENTRICITY":"0.00017110","COUNTRY_CODE":"US","GP_ID":"212167067","MEAN_ANOMALY":"293.4790","CENTER_NAME":"EARTH","FILE":"3565505","LAUNCH_DATE":"2021-04-07","EPHEMERIS_TYPE":"0","INCLINATION":"53.0549","REF_FRAME":"TEME","SITE":"AFETR","OBJECT_ID":"2021-027AP","EPOCH":"2022-09-09T16:31:44.213088","PERIAPSIS":"546.025","CLASSIFICATION_TYPE":"U","MEAN_MOTION":"15.06401175","MEAN_ELEMENT_THEORY":"SGP4","DECAY_DATE":null,"ARG_OF_PERICENTER":"66.6379","RA_OF_ASC_NODE":"144.3104","RCS_SIZE":"LARGE","TIME_SYSTEM":"UTC","TLE_LINE1":"1 48129U 21027AP  22252.68870617  .00001293  00000-0  10570-3 0  9993","TLE_LINE2":"2 48129  53.0549 144.3104 0001711  66.6379 293.4790 15.06401175 79949","PERIOD":"95.592","SEMIMAJOR_AXIS":"6925.345","REV_AT_EPOCH":"7994","MEAN_MOTION_DOT":"0.00001293","NORAD_CAT_ID":"48129","APOAPSIS":"548.395","ELEMENT_SET_NO":"999","BSTAR":"0.00010570000000","OBJECT_TYPE":"PAYLOAD","OBJECT_NAME":"STARLINK-2471"}];
